ONEWEB-0578             
1 56067U 23043X   25351.81037152  .00000024  00000+0  26441-4 0  9995
2 56067  87.9225 280.1507 0001591  81.0298 279.1016 13.21824499134272
ONEWEB-0579             
1 56068U 23043Y   25351.72480582 -.00000055  00000+0 -16569-3 0  9990
2 56068  87.9228 280.1551 0002018  70.5075 289.6277 13.21827987134276
ONEWEB-0581             
1 56069U 23043Z   25351.82151461 -.00000094  00000+0 -27907-3 0  9994
2 56069  87.9044 264.8966 0001988  81.9912 278.1445 13.16594704135096
ONEWEB-0609             
1 56070U 23043AA  25351.78703141 -.00000072  00000+0 -22516-3 0  9996
2 56070  87.9004 295.4157 0001775  74.9498 285.1829 13.15549281132585
ONEWEB-0613             
1 56071U 23043AB  25351.78227178 -.00000042  00000+0 -14638-3 0  9991
2 56071  87.8998 295.4288 0001970  70.5142 289.6201 13.15549980132586
ONEWEB-0630             
1 56072U 23043AC  25351.77751465  .00000043  00000+0  80900-4 0  9997
2 56072  87.8997 295.4009 0001972  70.0313 290.1030 13.15550267132570
ONEWEB-0632             
1 56073U 23043AD  25351.92488499  .00000057  00000+0  11766-3 0  9997
2 56073  87.8996 295.3897 0002049  81.9057 278.2306 13.15548948132594
ONEWEB-0633             
1 56074U 23043AE  25351.84248624  .00000159  00000+0  38702-3 0  9995
2 56074  87.8995 295.3692 0001884  65.4078 294.7248 13.15549940132561
